start=new Date('2022-09-28T00:00:00.000Z').valueOf();
sats=[{"MEAN_MOTION_DOT":"-0.00002280","BSTAR":"-0.00013420000000","PERIOD":"95.591","ELEMENT_SET_NO":"999","REF_FRAME":"TEME","MEAN_ANOMALY":"275.2851","CENTER_NAME":"EARTH","MEAN_MOTION":"15.06412802","COUNTRY_CODE":"US","SITE":"AFETR","GP_ID":"213665970","EPOCH":"2022-09-27T20:30:58.203648","NORAD_CAT_ID":"47659","RA_OF_ASC_NODE":"202.7562","ECCENTRICITY":"0.00013190","MEAN_MOTION_DDOT":"0.0000000000000","PERIAPSIS":"546.261","TLE_LINE2":"2 47659  53.0525 202.7562 0001319  84.8288 275.2851 15.06412802 91907","TLE_LINE1":"1 47659U 21012AR  22270.85484032 -.00002280  00000-0 -13420-3 0  9991","SEMIMAJOR_AXIS":"6925.309","APOAPSIS":"548.088","REV_AT_EPOCH":"9190","INCLINATION":"53.0525","RCS_SIZE":"LARGE","FILE":"3585280","LAUNCH_DATE":"2021-02-16","CLASSIFICATION_TYPE":"U","EPHEMERIS_TYPE":"0","OBJECT_ID":"2021-012AR","TIME_SYSTEM":"UTC","OBJECT_TYPE":"PAYLOAD","ARG_OF_PERICENTER":"84.8288","OBJECT_NAME":"STARLINK-2043","MEAN_ELEMENT_THEORY":"SGP4","DECAY_DATE":null},{"EPOCH":"2022-09-27T01:52:28.900128","GP_ID":"213636578","SITE":"AFETR","NORAD_CAT_ID":"47660","PERIAPSIS":"546.204","MEAN_MOTION_DDOT":"0.0000000000000","RA_OF_ASC_NODE":"196.8704","ECCENTRICITY":"0.00014440","TLE_LINE1":"1 47660U 21012AS  22270.07811227 -.00000290  00000-0 -57954-6 0  9999","TLE_LINE2":"2 47660  53.0541 196.8704 0001444  93.8589 266.2565 15.06403191 91926","PERIOD":"95.592","MEAN_MOTION_DOT":"-0.00000290","BSTAR":"-0.00000057954000","CENTER_NAME":"EARTH","MEAN_ANOMALY":"266.2565","REF_FRAME":"TEME","ELEMENT_SET_NO":"999","MEAN_MOTION":"15.06403191","COUNTRY_CODE":"US","EPHEMERIS_TYPE":"0","OBJECT_ID":"2021-012AS","OBJECT_NAME":"STARLINK-2044","ARG_OF_PERICENTER":"93.8589","TIME_SYSTEM":"UTC","OBJECT_TYPE":"PAYLOAD","MEAN_ELEMENT_THEORY":"SGP4","DECAY_DATE":null,"INCLINATION":"53.0541","RCS_SIZE":"LARGE","REV_AT_EPOCH":"9192","SEMIMAJOR_AXIS":"6925.339","APOAPSIS":"548.204","FILE":"3585092","LAUNCH_DATE":"2021-02-16","CLASSIFICATION_TYPE":"U"},{"MEAN_MOTION":"15.06397531","COUNTRY_CODE":"US","PERIOD":"95.592","BSTAR":"0.00001346500000","MEAN_MOTION_DOT":"-0.00000081","CENTER_NAME":"EARTH","MEAN_ANOMALY":"305.4140","REF_FRAME":"TEME","ELEMENT_SET_NO":"999","MEAN_MOTION_DDOT":"0.0000000000000","PERIAPSIS":"546.109","ECCENTRICITY":"0.00016060","RA_OF_ASC_NODE":"303.0287","TLE_LINE1":"1 47661U 21012AT  22270.79404148 -.00000081  00000-0  13465-4 0  9993","TLE_LINE2":"2 47661  53.0547 303.0287 0001606  54.6999 305.4140 15.06397531 90509","GP_ID":"213664975","EPOCH":"2022-09-27T19:03:25.183872","SITE":"AFETR","NORAD_CAT_ID":"47661","LAUNCH_DATE":"2021-02-16","CLASSIFICATION_TYPE":"U","RCS_SIZE":"LARGE","INCLINATION":"53.0547","REV_AT_EPOCH":"9050","APOAPSIS":"548.333","SEMIMAJOR_AXIS":"6925.356","FILE":"3585280","MEAN_ELEMENT_THEORY":"SGP4","DECAY_DATE":null,"EPHEMERIS_TYPE":"0","OBJECT_ID":"2021-012AT","OBJECT_NAME":"STARLINK-2051","ARG_OF_PERICENTER":"54.6999","TIME_SYSTEM":"UTC","OBJECT_TYPE":"PAYLOAD"},{"PERIOD":"95.592","MEAN_MOTION_DOT":"0.00002853","BSTAR":"0.00021035000000","ELEMENT_SET_NO":"999","MEAN_ANOMALY":"289.5471","CENTER_NAME":"EARTH","REF_FRAME":"TEME","MEAN_MOTION":"15.06405002","COUNTRY_CODE":"US","EPOCH":"2022-09-27T13:48:54.330048","GP_ID":"213666226","SITE":"AFETR","NORAD_CAT_ID":"47662","RA_OF_ASC_NODE":"304.0148","ECCENTRICITY":"0.00016130","PERIAPSIS":"546.081","MEAN_MOTION_DDOT":"0.0000000000000","TLE_LINE2":"2 47662  53.0532 304.0148 0001613  70.5692 289.5471 15.06405002 90496","TLE_LINE1":"1 47662U 21012AU  22270.57562882  .00002853  00000-0  21035-3 0  9999","REV_AT_EPOCH":"9049","APOAPSIS":"548.315","SEMIMAJOR_AXIS":"6925.333","RCS_SIZE":"LARGE","INCLINATION":"53.0532","FILE":"3585280","LAUNCH_DATE":"2021-02-16","CLASSIFICATION_TYPE":"U","OBJECT_ID":"2021-012AU","EPHEMERIS_TYPE":"0","ARG_OF_PERICENTER":"70.5692","OBJECT_TYPE":"PAYLOAD","TIME_SYSTEM":"UTC","OBJECT_NAME":"STARLINK-2052","DECAY_DATE":null,"MEAN_ELEMENT_THEORY":"SGP4"},{"MEAN_MOTION_DDOT":"0.0000000000000","PERIAPSIS":"546.195","RA_OF_ASC_NODE":"226.1084","ECCENTRICITY":"0.00015000","TLE_LINE1":"1 47663U 21012AV  22270.17483785 -.00000095  00000-0  12554-4 0  9994","TLE_LINE2":"2 47663  53.0538 226.1084 0001500  70.6903 289.4249 15.06393422 91548","EPOCH":"2022-09-27T04:11:45.990240","GP_ID":"213635327","SITE":"AFETR","NORAD_CAT_ID":"47663","MEAN_MOTION":"15.06393422","COUNTRY_CODE":"US","PERIOD":"95.593","BSTAR":"0.00001255400000","MEAN_MOTION_DOT":"-0.00000095","MEAN_ANOMALY":"289.4249","CENTER_NAME":"EARTH","REF_FRAME":"TEME","ELEMENT_SET_NO":"999","DECAY_DATE":null,"MEAN_ELEMENT_THEORY":"SGP4","EPHEMERIS_TYPE":"0","OBJECT_ID":"2021-012AV","OBJECT_NAME":"STARLINK-2053","ARG_OF_PERICENTER":"70.6903","TIME_SYSTEM":"UTC","OBJECT_TYPE":"PAYLOAD","LAUNCH_DATE":"2021-02-16","CLASSIFICATION_TYPE":"U","RCS_SIZE":"LARGE","INCLINATION":"53.0538","REV_AT_EPOCH":"9154","SEMIMAJOR_AXIS":"6925.369","APOAPSIS":"548.273","FILE":"3585092"},{"FILE":"3585092","RCS_SIZE":"LARGE","INCLINATION":"53.0538","REV_AT_EPOCH":"9046","SEMIMAJOR_AXIS":"6925.339","APOAPSIS":"548.227","CLASSIFICATION_TYPE":"U","LAUNCH_DATE":"2021-02-16","OBJECT_NAME":"STARLINK-2054","ARG_OF_PERICENTER":"66.5282","OBJECT_TYPE":"PAYLOAD","TIME_SYSTEM":"UTC","EPHEMERIS_TYPE":"0","OBJECT_ID":"2021-012AW","MEAN_ELEMENT_THEORY":"SGP4","DECAY_DATE":null,"CENTER_NAME":"EARTH","MEAN_ANOMALY":"293.5863","REF_FRAME":"TEME","ELEMENT_SET_NO":"999","PERIOD":"95.592","BSTAR":"-0.00011021000000","MEAN_MOTION_DOT":"-0.00001923","COUNTRY_CODE":"US","MEAN_MOTION":"15.06403145","NORAD_CAT_ID":"47664","EPOCH":"2022-09-27T09:03:38.090016","GP_ID":"213636079","SITE":"AFETR","TLE_LINE1":"1 47664U 21012AW  22270.37752419 -.00001923  00000-0 -11021-3 0  9999","TLE_LINE2":"2 47664  53.0538 304.9047 0001478  66.5282 293.5863 15.06403145 90463","MEAN_MOTION_DDOT":"0.0000000000000","PERIAPSIS":"546.180","ECCENTRICITY":"0.00014780","RA_OF_ASC_NODE":"304.9047"},{"DECAY_DATE":null,"MEAN_ELEMENT_THEORY":"SGP4","ARG_OF_PERICENTER":"75.3274","TIME_SYSTEM":"UTC","OBJECT_TYPE":"PAYLOAD","OBJECT_NAME":"STARLINK-2056","EPHEMERIS_TYPE":"0","OBJECT_ID":"2021-012AX","CLASSIFICATION_TYPE":"U","LAUNCH_DATE":"2021-02-16","FILE":"3585092","REV_AT_EPOCH":"9052","SEMIMAJOR_AXIS":"6925.356","APOAPSIS":"548.084","RCS_SIZE":"LARGE","INCLINATION":"53.0558","TLE_LINE2":"2 47665  53.0558 300.0397 0001245  75.3274 284.7853 15.06397414 90521","TLE_LINE1":"1 47665U 21012AX  22270.35771915 -.00000411  00000-0 -86837-5 0  9990","ECCENTRICITY":"0.00012450","RA_OF_ASC_NODE":"300.0397","MEAN_MOTION_DDOT":"0.0000000000000","PERIAPSIS":"546.359","NORAD_CAT_ID":"47665","GP_ID":"213636829","EPOCH":"2022-09-27T08:35:06.934560","SITE":"AFETR","COUNTRY_CODE":"US","MEAN_MOTION":"15.06397414","ELEMENT_SET_NO":"999","MEAN_ANOMALY":"284.7853","CENTER_NAME":"EARTH","REF_FRAME":"TEME","PERIOD":"95.592","MEAN_MOTION_DOT":"-0.00000411","BSTAR":"-0.00000868370000"},{"FILE":"3584887","RCS_SIZE":"LARGE","INCLINATION":"53.0547","APOAPSIS":"548.360","SEMIMAJOR_AXIS":"6925.362","REV_AT_EPOCH":"9001","CLASSIFICATION_TYPE":"U","LAUNCH_DATE":"2021-02-16","OBJECT_NAME":"STARLINK-2057","TIME_SYSTEM":"UTC","OBJECT_TYPE":"PAYLOAD","ARG_OF_PERICENTER":"54.4462","EPHEMERIS_TYPE":"0","OBJECT_ID":"2021-012AY","MEAN_ELEMENT_THEORY":"SGP4","DECAY_DATE":null,"REF_FRAME":"TEME","MEAN_ANOMALY":"305.6679","CENTER_NAME":"EARTH","ELEMENT_SET_NO":"999","MEAN_MOTION_DOT":"0.00000224","BSTAR":"0.00003395200000","PERIOD":"95.592","COUNTRY_CODE":"US","MEAN_MOTION":"15.06395545","NORAD_CAT_ID":"47666","SITE":"AFETR","GP_ID":"213609746","EPOCH":"2022-09-27T10:05:23.835264","TLE_LINE1":"1 47666U 21012AY  22270.42041476  .00000224  00000-0  33952-4 0  9990","TLE_LINE2":"2 47666  53.0547 300.0575 0001635  54.4462 305.6679 15.06395545 90014","MEAN_MOTION_DDOT":"0.0000000000000","PERIAPSIS":"546.095","ECCENTRICITY":"0.00016350","RA_OF_ASC_NODE":"300.0575"},{"COUNTRY_CODE":"US","MEAN_MOTION":"15.06399293","REF_FRAME":"TEME","CENTER_NAME":"EARTH","MEAN_ANOMALY":"299.9880","ELEMENT_SET_NO":"999","BSTAR":"0.00012579000000","MEAN_MOTION_DOT":"0.00001593","PERIOD":"95.592","TLE_LINE1":"1 47667U 21012AZ  22270.54154708  .00001593  00000-0  12579-3 0  9998","TLE_LINE2":"2 47667  53.0552 324.1645 0001562  60.1264 299.9880 15.06399293 90180","PERIAPSIS":"546.134","MEAN_MOTION_DDOT":"0.0000000000000","ECCENTRICITY":"0.00015620","RA_OF_ASC_NODE":"324.1645","NORAD_CAT_ID":"47667","SITE":"AFETR","GP_ID":"213635827","EPOCH":"2022-09-27T12:59:49.667712","CLASSIFICATION_TYPE":"U","LAUNCH_DATE":"2021-02-16","FILE":"3585092","INCLINATION":"53.0552","RCS_SIZE":"LARGE","APOAPSIS":"548.297","SEMIMAJOR_AXIS":"6925.351","REV_AT_EPOCH":"9018","DECAY_DATE":null,"MEAN_ELEMENT_THEORY":"SGP4","OBJECT_NAME":"STARLINK-2058","OBJECT_TYPE":"PAYLOAD","TIME_SYSTEM":"UTC","ARG_OF_PERICENTER":"60.1264","OBJECT_ID":"2021-012AZ","EPHEMERIS_TYPE":"0"},{"SITE":"AFETR","EPOCH":"2022-09-27T10:49:47.429760","GP_ID":"213636579","NORAD_CAT_ID":"47668","RA_OF_ASC_NODE":"304.5578","ECCENTRICITY":"0.00014470","PERIAPSIS":"546.235","MEAN_MOTION_DDOT":"0.0000000000000","TLE_LINE2":"2 47668  53.0546 304.5578 0001447  59.4210 300.6922 15.06392280 90473","TLE_LINE1":"1 47668U 21012BA  22270.45124340 -.00000325  00000-0 -29394-5 0  9997","BSTAR":"-0.00000293940000","MEAN_MOTION_DOT":"-0.00000325","PERIOD":"95.593","ELEMENT_SET_NO":"999","REF_FRAME":"TEME","MEAN_ANOMALY":"300.6922","CENTER_NAME":"EARTH","MEAN_MOTION":"15.06392280","COUNTRY_CODE":"US","EPHEMERIS_TYPE":"0","OBJECT_ID":"2021-012BA","OBJECT_TYPE":"PAYLOAD","TIME_SYSTEM":"UTC","ARG_OF_PERICENTER":"59.4210","OBJECT_NAME":"STARLINK-2059","DECAY_DATE":null,"MEAN_ELEMENT_THEORY":"SGP4","APOAPSIS":"548.239","SEMIMAJOR_AXIS":"6925.372","REV_AT_EPOCH":"9047","INCLINATION":"53.0546","RCS_SIZE":"LARGE","FILE":"3585092","LAUNCH_DATE":"2021-02-16","CLASSIFICATION_TYPE":"U"}];
